{
  "norad_id": "50322",
  "name": "SHIYAN-12 02 (SY-12 02)",
  "line1": "1 50322U 21129B   26171.33878891 -.00000285  00000+0  00000+0 0  9995",
  "line2": "2 50322   3.6832  79.8744 0002777  58.4175 343.5989  1.00488779 16538",
  "fetched_at": "2026-06-22T01:52:43.767634+00:00"
}